STARLINK-1344_new
1 15559C 20025AE  21326.16057064  .00004236  00000-0  28388-3 0  3261
2 15559  53.0530 288.0199 0001734  63.2559   5.3506 15.06387314    16
STARLINK-1344_old
1 25559C 20025AE  21325.10572039 -.00025999  00000-0 -17421-2 0  3253
2 25559  53.0534 292.7552 0001712  63.1924  41.7585 15.06420696    18
